RISAT-2BR2              
1 46905U 20081A   26068.52426450  .00004901  00000+0  37609-3 0  9996
2 46905  36.8980  95.9121 0010905  52.9142 307.2595 15.01602463292489
STARLINK-34697          
1 64791U 25150B   26068.52016311  .00002868  00000+0  24806-3 0  9997
2 64791  70.0018 134.7957 0003641 269.2497  90.8245 14.98326239 36491
